stk.v.8.0

BEGIN Ephemeris

NumberOfEphemerisPoints 24238
CoordinateSystem Custom RIC Satellite/Origin

EphemerisTimePosVel

13184.000000 5.627844 -81.632524 9.219242 -0.006943 0.001160 0.033207
13185.000000 5.594638 -81.639467 9.218082 -0.006872 0.001171 0.033203
13186.000000 5.561435 -81.646339 9.216911 -0.006800 0.001182 0.033199
13187.000000 5.528236 -81.653138 9.215729 -0.006728 0.001193 0.033195
13188.000000 5.495040 -81.659867 9.214536 -0.006657 0.001203 0.033192
13189.000000 5.461849 -81.666523 9.213333 -0.006585 0.001214 0.033187
13190.000000 5.428661 -81.673108 9.212119 -0.006514 0.001225 0.033183
13191.000000 5.395478 -81.679622 9.210894 -0.006442 0.001236 0.033179
13192.000000 5.362299 -81.686064 9.209659 -0.006370 0.001246 0.033175
13193.000000 5.329124 -81.692434 9.208412 -0.006299 0.001257 0.033171
13194.000000 5.295953 -81.698733 9.207155 -0.006227 0.001268 0.033167
13195.000000 5.262786 -81.704960 9.205888 -0.006156 0.001279 0.033163
13196.000000 5.229624 -81.711116 9.204609 -0.006084 0.001289 0.033158
13197.000000 5.196465 -81.717200 9.203320 -0.006013 0.001300 0.033154
13198.000000 5.163311 -81.723213 9.202020 -0.005941 0.001311 0.033150
13199.000000 5.130161 -81.729154 9.200709 -0.005870 0.001322 0.033146
13200.000000 5.097016 -81.735023 9.199387 -0.005798 0.001332 0.033141
13201.000000 5.063875 -81.740822 9.198055 -0.005727 0.001343 0.033136
13202.000000 5.030738 -81.746548 9.196712 -0.005655 0.001354 0.033132
13203.000000 4.997606 -81.752203 9.195358 -0.005584 0.001364 0.033127
13204.000000 4.964479 -81.757787 9.193994 -0.005512 0.001375 0.033123
13205.000000 4.931356 -81.763299 9.192619 -0.005441 0.001386 0.033118
13206.000000 4.898237 -81.768740 9.191233 -0.005369 0.001397 0.033114
13207.000000 4.865124 -81.774109 9.189836 -0.005298 0.001407 0.033109
13208.000000 4.832014 -81.779407 9.188428 -0.005226 0.001418 0.033105
13209.000000 4.798910 -81.784633 9.187010 -0.005155 0.001429 0.033100
13210.000000 4.765810 -81.789788 9.185581 -0.005084 0.001440 0.033095
13211.000000 4.732715 -81.794872 9.184142 -0.005012 0.001450 0.033090
13212.000000 4.699625 -81.799884 9.182691 -0.004941 0.001461 0.033085
13213.000000 4.666540 -81.804825 9.181230 -0.004869 0.001472 0.033080
13214.000000 4.633460 -81.809694 9.179759 -0.004798 0.001483 0.033075
13215.000000 4.600384 -81.814492 9.178276 -0.004727 0.001493 0.033070
13216.000000 4.567314 -81.819219 9.176783 -0.004655 0.001504 0.033065
13217.000000 4.534249 -81.823874 9.175279 -0.004584 0.001515 0.033060
13218.000000 4.501188 -81.828458 9.173764 -0.004513 0.001525 0.033056
13219.000000 4.468133 -81.832971 9.172239 -0.004441 0.001536 0.033050
13220.000000 4.435082 -81.837412 9.170703 -0.004370 0.001547 0.033045
13221.000000 4.402037 -81.841782 9.169156 -0.004299 0.001558 0.033040
13222.000000 4.368998 -81.846081 9.167598 -0.004227 0.001568 0.033034
13223.000000 4.335964 -81.850308 9.166030 -0.004156 0.001579 0.033029
13224.000000 4.302935 -81.854465 9.164451 -0.004085 0.001590 0.033024
13225.000000 4.269911 -81.858549 9.162862 -0.004014 0.001600 0.033018
13226.000000 4.236892 -81.862563 9.161261 -0.003942 0.001611 0.033013
13227.000000 4.203879 -81.866506 9.159650 -0.003871 0.001622 0.033008
13228.000000 4.170872 -81.870377 9.158028 -0.003800 0.001632 0.033002
13229.000000 4.137869 -81.874177 9.156396 -0.003729 0.001643 0.032997
13230.000000 4.104872 -81.877905 9.154753 -0.003658 0.001654 0.032991
13231.000000 4.071881 -81.881563 9.153099 -0.003586 0.001664 0.032985
13232.000000 4.038896 -81.885149 9.151435 -0.003515 0.001675 0.032980
13233.000000 4.005916 -81.888665 9.149759 -0.003444 0.001686 0.032974
13234.000000 3.972942 -81.892109 9.148074 -0.003373 0.001697 0.032968
13235.000000 3.939974 -81.895482 9.146377 -0.003302 0.001707 0.032963
13236.000000 3.907011 -81.898783 9.144670 -0.003231 0.001718 0.032957
13237.000000 3.874054 -81.902014 9.142952 -0.003159 0.001729 0.032951
13238.000000 3.841103 -81.905174 9.141223 -0.003088 0.001739 0.032946
13239.000000 3.808158 -81.908262 9.139484 -0.003017 0.001750 0.032939
13240.000000 3.775218 -81.911279 9.137734 -0.002946 0.001761 0.032933
13241.000000 3.742285 -81.914226 9.135974 -0.002875 0.001771 0.032927
13242.000000 3.709358 -81.917101 9.134202 -0.002804 0.001782 0.032921
13243.000000 3.676436 -81.919905 9.132420 -0.002733 0.001793 0.032915
13244.000000 3.643521 -81.922638 9.130628 -0.002662 0.001803 0.032909
13245.000000 3.610612 -81.925300 9.128824 -0.002591 0.001814 0.032903
13246.000000 3.577709 -81.927892 9.127011 -0.002520 0.001825 0.032897
13247.000000 3.544812 -81.930412 9.125186 -0.002449 0.001835 0.032891
13248.000000 3.511922 -81.932861 9.123351 -0.002378 0.001846 0.032885
13249.000000 3.479037 -81.935239 9.121505 -0.002307 0.001857 0.032878
13250.000000 3.446159 -81.937546 9.119648 -0.002236 0.001867 0.032872
13251.000000 3.413287 -81.939782 9.117781 -0.002165 0.001878 0.032865
13252.000000 3.380421 -81.941947 9.115903 -0.002094 0.001888 0.032859
13253.000000 3.347563 -81.944042 9.114015 -0.002024 0.001899 0.032852
13254.000000 3.314710 -81.946065 9.112115 -0.001953 0.001910 0.032846
13255.000000 3.281864 -81.948018 9.110206 -0.001882 0.001920 0.032839
13256.000000 3.249025 -81.949900 9.108285 -0.001811 0.001931 0.032833
13257.000000 3.216192 -81.951711 9.106354 -0.001740 0.001942 0.032827
13258.000000 3.183365 -81.953451 9.104412 -0.001669 0.001952 0.032820
13259.000000 3.150545 -81.955120 9.102460 -0.001598 0.001963 0.032813
13260.000000 3.117732 -81.956718 9.100497 -0.001528 0.001974 0.032806
13261.000000 3.084925 -81.958245 9.098524 -0.001457 0.001984 0.032800
13262.000000 3.052126 -81.959702 9.096539 -0.001386 0.001995 0.032793
13263.000000 3.019333 -81.961088 9.094544 -0.001315 0.002005 0.032786
13264.000000 2.986547 -81.962403 9.092539 -0.001244 0.002016 0.032779
13265.000000 2.953768 -81.963648 9.090523 -0.001174 0.002027 0.032772
13266.000000 2.920996 -81.964821 9.088496 -0.001103 0.002037 0.032765
13267.000000 2.888231 -81.965924 9.086459 -0.001032 0.002048 0.032758
13268.000000 2.855473 -81.966957 9.084411 -0.000961 0.002059 0.032752
13269.000000 2.822721 -81.967918 9.082352 -0.000891 0.002069 0.032744
13270.000000 2.789977 -81.968809 9.080283 -0.000820 0.002080 0.032737
13271.000000 2.757239 -81.969629 9.078204 -0.000750 0.002090 0.032730
13272.000000 2.724510 -81.970379 9.076113 -0.000679 0.002101 0.032723
13273.000000 2.691787 -81.971058 9.074012 -0.000608 0.002112 0.032715
13274.000000 2.659071 -81.971666 9.071901 -0.000538 0.002122 0.032708
13275.000000 2.626363 -81.972204 9.069779 -0.000467 0.002133 0.032701
13276.000000 2.593662 -81.972671 9.067646 -0.000397 0.002143 0.032694
13277.000000 2.560969 -81.973067 9.065502 -0.000326 0.002154 0.032687
13278.000000 2.528282 -81.973393 9.063349 -0.000255 0.002165 0.032679
13279.000000 2.495603 -81.973649 9.061184 -0.000185 0.002175 0.032672
13280.000000 2.462931 -81.973833 9.059009 -0.000114 0.002186 0.032664
13281.000000 2.430267 -81.973948 9.056823 -0.000044 0.002196 0.032656
13282.000000 2.397611 -81.973992 9.054627 0.000027 0.002207 0.032649
13283.000000 2.364962 -81.973965 9.052420 0.000097 0.002217 0.032641
13284.000000 2.332321 -81.973868 9.050203 0.000167 0.002228 0.032634
13285.000000 2.299687 -81.973701 9.047975 0.000238 0.002239 0.032626
13286.000000 2.267061 -81.973463 9.045736 0.000308 0.002249 0.032618
13287.000000 2.234443 -81.973155 9.043487 0.000379 0.002260 0.032611
13288.000000 2.201832 -81.972776 9.041228 0.000449 0.002270 0.032603
13289.000000 2.169229 -81.972326 9.038957 0.000520 0.002281 0.032595
13290.000000 2.136634 -81.971807 9.036677 0.000590 0.002291 0.032587
13291.000000 2.104047 -81.971217 9.034385 0.000660 0.002302 0.032579
13292.000000 2.071468 -81.970557 9.032083 0.000730 0.002312 0.032571
13293.000000 2.038896 -81.969826 9.029771 0.000801 0.002323 0.032563
13294.000000 2.006333 -81.969026 9.027448 0.000871 0.002334 0.032555
13295.000000 1.973778 -81.968155 9.025115 0.000941 0.002344 0.032547
13296.000000 1.941231 -81.967213 9.022771 0.001012 0.002355 0.032539
13297.000000 1.908692 -81.966202 9.020416 0.001082 0.002365 0.032531
13298.000000 1.876161 -81.965120 9.018051 0.001152 0.002376 0.032523
13299.000000 1.843638 -81.963968 9.015675 0.001222 0.002386 0.032515
13300.000000 1.811123 -81.962745 9.013289 0.001292 0.002397 0.032506
13301.000000 1.778617 -81.961453 9.010892 0.001363 0.002407 0.032498
13302.000000 1.746119 -81.960090 9.008485 0.001433 0.002418 0.032490
13303.000000 1.713629 -81.958658 9.006067 0.001503 0.002428 0.032481
13304.000000 1.681148 -81.957155 9.003639 0.001573 0.002439 0.032473
13305.000000 1.648675 -81.955582 9.001200 0.001643 0.002449 0.032464
13306.000000 1.616210 -81.953939 8.998751 0.001713 0.002460 0.032456
13307.000000 1.583754 -81.952226 8.996291 0.001783 0.002470 0.032448
13308.000000 1.551307 -81.950442 8.993821 0.001853 0.002481 0.032439
13309.000000 1.518867 -81.948589 8.991340 0.001923 0.002491 0.032431
13310.000000 1.486437 -81.946666 8.988848 0.001993 0.002502 0.032422
13311.000000 1.454015 -81.944672 8.986347 0.002063 0.002512 0.032413
13312.000000 1.421602 -81.942609 8.983834 0.002133 0.002523 0.032404
13313.000000 1.389198 -81.940476 8.981312 0.002203 0.002533 0.032396
13314.000000 1.356802 -81.938273 8.978778 0.002273 0.002544 0.032387
13315.000000 1.324415 -81.936000 8.976234 0.002343 0.002554 0.032378
13316.000000 1.292037 -81.933657 8.973680 0.002413 0.002565 0.032369
13317.000000 1.259668 -81.931244 8.971115 0.002483 0.002575 0.032360
13318.000000 1.227307 -81.928761 8.968540 0.002553 0.002586 0.032352
13319.000000 1.194956 -81.926208 8.965954 0.002623 0.002596 0.032343
13320.000000 1.162613 -81.923586 8.963358 0.002692 0.002607 0.032333
13321.000000 1.130280 -81.920893 8.960752 0.002762 0.002617 0.032324
13322.000000 1.097955 -81.918131 8.958134 0.002832 0.002628 0.032315
END Ephemeris